{
    "links": {
        "self": "http://www.neowsapp.com/rest/v1/neo/3445069?api_key=iIulBulltgU6a56xZRHN4H3l9WmuAYTsLGpBGhQ2"
    },
    "id": "3445069",
    "neo_reference_id": "3445069",
    "name": "(2009 BD58)",
    "designation": "2009 BD58",
    "nasa_jpl_url": "http://ssd.jpl.nasa.gov/sbdb.cgi?sstr=3445069",
    "absolute_magnitude_h": 22.2,
    "estimated_diameter": {
        "kilometers": {
            "estimated_diameter_min": 0.096506147,
            "estimated_diameter_max": 0.2157943048
        },
        "meters": {
            "estimated_diameter_min": 96.5061469579,
            "estimated_diameter_max": 215.7943048444
        },
        "miles": {
            "estimated_diameter_min": 0.059966121,
            "estimated_diameter_max": 0.134088323
        },
        "feet": {
            "estimated_diameter_min": 316.6212271853,
            "estimated_diameter_max": 707.9865871058
        }
    },
    "is_potentially_hazardous_asteroid": false,
    "close_approach_data": [
        {
            "close_approach_date": "2009-02-09",
            "close_approach_date_full": "2009-Feb-09 05:51",
            "epoch_date_close_approach": 1234158660000,
            "relative_velocity": {
                "kilometers_per_second": "13.1045702161",
                "kilometers_per_hour": "47176.4527780118",
                "miles_per_hour": "29313.6131164263"
            },
            "miss_distance": {
                "astronomical": "0.0695834931",
                "lunar": "27.0679788159",
                "kilometers": "10409542.354919697",
                "miles": "6468189.6854059386"
            },
            "orbiting_body": "Earth"
        }
    ],
    "orbital_data": {
        "orbit_id": "10",
        "orbit_determination_date": "2017-04-06 09:01:33",
        "first_observation_date": "2009-01-18",
        "last_observation_date": "2009-02-04",
        "data_arc_in_days": 17,
        "observations_used": 131,
        "orbit_uncertainty": "8",
        "minimum_orbit_intersection": ".0652301",
        "jupiter_tisserand_invariant": "4.031",
        "epoch_osculation": "2454860.5",
        "eccentricity": ".4758095220696192",
        "semi_major_axis": "1.698775596331878",
        "inclination": "15.58117246403029",
        "ascending_node_longitude": "128.5050095242071",
        "orbital_period": "808.7279395399524",
        "perihelion_distance": ".8904819917376745",
        "perihelion_argument": "64.88243086341204",
        "aphelion_distance": "2.507069200926081",
        "perihelion_time": "2454913.491872212452",
        "mean_anomaly": "336.4110115852622",
        "mean_motion": ".4451435178618748",
        "equinox": "J2000",
        "orbit_class": {
            "orbit_class_type": "APO",
            "orbit_class_description": "Near-Earth asteroid orbits which cross the Earth’s orbit similar to that of 1862 Apollo",
            "orbit_class_range": "a (semi-major axis) > 1.0 AU; q (perihelion) < 1.017 AU"
        }
    },
    "is_sentry_object": false
}